[{"OBJECT_NAME":"ONEWEB-0262","OBJECT_ID":"2021-060P","EPOCH":"2025-09-12T11:57:53.269344","MEAN_MOTION":13.16595404,"ECCENTRICITY":0.00017128,"INCLINATION":87.8985,"RA_OF_ASC_NODE":284.1138,"ARG_OF_PERICENTER":102.0449,"MEAN_ANOMALY":258.0874,"EPHEMERIS_TYPE":0,"CLASSIFICATION_TYPE":"U","NORAD_CAT_ID":48980,"ELEMENT_SET_NO":999,"REV_AT_EPOCH":20308,"BSTAR":-0.00014554425,"MEAN_MOTION_DOT":-4.3e-7,"MEAN_MOTION_DDOT":0},{"OBJECT_NAME":"ONEWEB-0263","OBJECT_ID":"2021-060Q","EPOCH":"2025-09-11T14:50:16.488096","MEAN_MOTION":13.16594556,"ECCENTRICITY":0.00014023,"INCLINATION":87.8979,"RA_OF_ASC_NODE":284.3121,"ARG_OF_PERICENTER":92.4184,"MEAN_ANOMALY":267.7108,"EPHEMERIS_TYPE":0,"CLASSIFICATION_TYPE":"U","NORAD_CAT_ID":48981,"ELEMENT_SET_NO":999,"REV_AT_EPOCH":20293,"BSTAR":0.00011498261,"MEAN_MOTION_DOT":5.7e-7,"MEAN_MOTION_DDOT":0},{"OBJECT_NAME":"ONEWEB-0264","OBJECT_ID":"2021-060R","EPOCH":"2025-09-12T11:47:37.988160","MEAN_MOTION":13.16592699,"ECCENTRICITY":0.00018388,"INCLINATION":87.8975,"RA_OF_ASC_NODE":284.1424,"ARG_OF_PERICENTER":85.6802,"MEAN_ANOMALY":274.4539,"EPHEMERIS_TYPE":0,"CLASSIFICATION_TYPE":"U","NORAD_CAT_ID":48982,"ELEMENT_SET_NO":999,"REV_AT_EPOCH":20305,"BSTAR":-0.00029907307,"MEAN_MOTION_DOT":-1.01e-6,"MEAN_MOTION_DDOT":0},{"OBJECT_NAME":"ONEWEB-0266","OBJECT_ID":"2021-060T","EPOCH":"2025-09-12T12:18:25.217568","MEAN_MOTION":13.1659492,"ECCENTRICITY":0.00019571,"INCLINATION":87.8984,"RA_OF_ASC_NODE":284.115,"ARG_OF_PERICENTER":98.8832,"MEAN_ANOMALY":261.2521,"EPHEMERIS_TYPE":0,"CLASSIFICATION_TYPE":"U","NORAD_CAT_ID":48984,"ELEMENT_SET_NO":999,"REV_AT_EPOCH":20304,"BSTAR":0.00010641655,"MEAN_MOTION_DOT":5.4e-7,"MEAN_MOTION_DDOT":0},{"OBJECT_NAME":"ONEWEB-0267","OBJECT_ID":"2021-060U","EPOCH":"2025-09-12T12:34:22.943424","MEAN_MOTION":13.1659392,"ECCENTRICITY":0.00016103,"INCLINATION":87.8984,"RA_OF_ASC_NODE":284.1152,"ARG_OF_PERICENTER":87.5305,"MEAN_ANOMALY":272.6011,"EPHEMERIS_TYPE":0,"CLASSIFICATION_TYPE":"U","NORAD_CAT_ID":48985,"ELEMENT_SET_NO":999,"REV_AT_EPOCH":20305,"BSTAR":0.00016039043,"MEAN_MOTION_DOT":7.4e-7,"MEAN_MOTION_DDOT":0},{"OBJECT_NAME":"ONEWEB-0268","OBJECT_ID":"2021-060V","EPOCH":"2025-09-11T13:55:32.504448","MEAN_MOTION":13.16594812,"ECCENTRICITY":0.00019208,"INCLINATION":87.8986,"RA_OF_ASC_NODE":284.31,"ARG_OF_PERICENTER":89.7544,"MEAN_ANOMALY":270.3807,"EPHEMERIS_TYPE":0,"CLASSIFICATION_TYPE":"U","NORAD_CAT_ID":48986,"ELEMENT_SET_NO":999,"REV_AT_EPOCH":20319,"BSTAR":-0.00019488019,"MEAN_MOTION_DOT":-6.2e-7,"MEAN_MOTION_DDOT":0},{"OBJECT_NAME":"ONEWEB-0269","OBJECT_ID":"2021-060W","EPOCH":"2025-09-12T13:10:51.823488","MEAN_MOTION":13.16594201,"ECCENTRICITY":0.00020174,"INCLINATION":87.8977,"RA_OF_ASC_NODE":284.1467,"ARG_OF_PERICENTER":92.0654,"MEAN_ANOMALY":268.0708,"EPHEMERIS_TYPE":0,"CLASSIFICATION_TYPE":"U","NORAD_CAT_ID":48987,"ELEMENT_SET_NO":999,"REV_AT_EPOCH":20309,"BSTAR":-5.8367518e-5,"MEAN_MOTION_DOT":-9.0e-8,"MEAN_MOTION_DDOT":0},{"OBJECT_NAME":"ONEWEB-0270","OBJECT_ID":"2021-060X","EPOCH":"2025-09-12T11:46:29.967168","MEAN_MOTION":13.1659474,"ECCENTRICITY":0.00014776,"INCLINATION":87.8984,"RA_OF_ASC_NODE":284.1297,"ARG_OF_PERICENTER":96.4201,"MEAN_ANOMALY":263.7098,"EPHEMERIS_TYPE":0,"CLASSIFICATION_TYPE":"U","NORAD_CAT_ID":48988,"ELEMENT_SET_NO":999,"REV_AT_EPOCH":20312,"BSTAR":-2.9065429e-5,"MEAN_MOTION_DOT":2.0e-8,"MEAN_MOTION_DDOT":0},{"OBJECT_NAME":"ONEWEB-0271","OBJECT_ID":"2021-060Y","EPOCH":"2025-09-12T11:28:15.642048","MEAN_MOTION":13.16594712,"ECCENTRICITY":0.00016202,"INCLINATION":87.8988,"RA_OF_ASC_NODE":284.1163,"ARG_OF_PERICENTER":89.49,"MEAN_ANOMALY":270.6417,"EPHEMERIS_TYPE":0,"CLASSIFICATION_TYPE":"U","NORAD_CAT_ID":48989,"ELEMENT_SET_NO":999,"REV_AT_EPOCH":20312,"BSTAR":-4.8663474e-5,"MEAN_MOTION_DOT":-6.0e-8,"MEAN_MOTION_DDOT":0},{"OBJECT_NAME":"ONEWEB-0272","OBJECT_ID":"2021-060Z","EPOCH":"2025-09-11T21:24:40.700736","MEAN_MOTION":13.16595749,"ECCENTRICITY":0.00017475,"INCLINATION":87.8978,"RA_OF_ASC_NODE":284.2615,"ARG_OF_PERICENTER":86.0434,"MEAN_ANOMALY":274.0896,"EPHEMERIS_TYPE":0,"CLASSIFICATION_TYPE":"U","NORAD_CAT_ID":48990,"ELEMENT_SET_NO":999,"REV_AT_EPOCH":20299,"BSTAR":-9.6644208e-5,"MEAN_MOTION_DOT":-2.4e-7,"MEAN_MOTION_DDOT":0},{"OBJECT_NAME":"ONEWEB-0273","OBJECT_ID":"2021-060AA","EPOCH":"2025-09-12T12:32:06.752832","MEAN_MOTION":13.16593907,"ECCENTRICITY":0.00017391,"INCLINATION":87.8982,"RA_OF_ASC_NODE":284.1235,"ARG_OF_PERICENTER":95.414,"MEAN_ANOMALY":264.7189,"EPHEMERIS_TYPE":0,"CLASSIFICATION_TYPE":"U","NORAD_CAT_ID":48991,"ELEMENT_SET_NO":999,"REV_AT_EPOCH":20305,"BSTAR":0.00010905846,"MEAN_MOTION_DOT":5.5e-7,"MEAN_MOTION_DDOT":0},{"OBJECT_NAME":"ONEWEB-0274","OBJECT_ID":"2021-060AB","EPOCH":"2025-09-12T13:08:35.043648","MEAN_MOTION":13.16594428,"ECCENTRICITY":0.00019427,"INCLINATION":87.8977,"RA_OF_ASC_NODE":284.1499,"ARG_OF_PERICENTER":80.8689,"MEAN_ANOMALY":279.2662,"EPHEMERIS_TYPE":0,"CLASSIFICATION_TYPE":"U","NORAD_CAT_ID":48992,"ELEMENT_SET_NO":999,"REV_AT_EPOCH":20309,"BSTAR":7.27189e-6,"MEAN_MOTION_DOT":1.6e-7,"MEAN_MOTION_DDOT":0},{"OBJECT_NAME":"ONEWEB-0275","OBJECT_ID":"2021-060AC","EPOCH":"2025-09-12T09:13:44.643936","MEAN_MOTION":13.16593858,"ECCENTRICITY":0.00018357,"INCLINATION":87.8982,"RA_OF_ASC_NODE":284.1458,"ARG_OF_PERICENTER":89.5879,"MEAN_ANOMALY":270.5463,"EPHEMERIS_TYPE":0,"CLASSIFICATION_TYPE":"U","NORAD_CAT_ID":48993,"ELEMENT_SET_NO":999,"REV_AT_EPOCH":20300,"BSTAR":0.00023745726,"MEAN_MOTION_DOT":1.04e-6,"MEAN_MOTION_DDOT":0},{"OBJECT_NAME":"ONEWEB-0276","OBJECT_ID":"2021-060AD","EPOCH":"2025-09-12T11:51:03.460320","MEAN_MOTION":13.16595284,"ECCENTRICITY":0.00018059,"INCLINATION":87.8985,"RA_OF_ASC_NODE":284.1211,"ARG_OF_PERICENTER":97.9263,"MEAN_ANOMALY":262.2073,"EPHEMERIS_TYPE":0,"CLASSIFICATION_TYPE":"U","NORAD_CAT_ID":48994,"ELEMENT_SET_NO":999,"REV_AT_EPOCH":20303,"BSTAR":-0.00027676449,"MEAN_MOTION_DOT":-9.3e-7,"MEAN_MOTION_DDOT":0},{"OBJECT_NAME":"ONEWEB-0277","OBJECT_ID":"2021-060AE","EPOCH":"2025-09-12T12:09:17.121888","MEAN_MOTION":13.16594396,"ECCENTRICITY":0.00015274,"INCLINATION":87.8977,"RA_OF_ASC_NODE":284.1516,"ARG_OF_PERICENTER":88.0243,"MEAN_ANOMALY":272.1063,"EPHEMERIS_TYPE":0,"CLASSIFICATION_TYPE":"U","NORAD_CAT_ID":48995,"ELEMENT_SET_NO":999,"REV_AT_EPOCH":20302,"BSTAR":-0.00018417834,"MEAN_MOTION_DOT":-5.8e-7,"MEAN_MOTION_DDOT":0},{"OBJECT_NAME":"ONEWEB-0278","OBJECT_ID":"2021-060AF","EPOCH":"2025-09-11T14:02:22.689312","MEAN_MOTION":13.16595823,"ECCENTRICITY":0.00019758,"INCLINATION":87.8987,"RA_OF_ASC_NODE":284.2994,"ARG_OF_PERICENTER":99.4844,"MEAN_ANOMALY":260.651,"EPHEMERIS_TYPE":0,"CLASSIFICATION_TYPE":"U","NORAD_CAT_ID":48996,"ELEMENT_SET_NO":999,"REV_AT_EPOCH":20303,"BSTAR":-9.2375031e-5,"MEAN_MOTION_DOT":-2.2e-7,"MEAN_MOTION_DDOT":0}]
