ONEWEB-0262             
1 48980U 21060P   25255.49853321 -.00000043  00000+0 -14554-3 0  9992
2 48980  87.8985 284.1138 0001712 102.0449 258.0874 13.16595404203089
ONEWEB-0263             
1 48981U 21060Q   25254.61824639  .00000057  00000+0  11498-3 0  9993
2 48981  87.8979 284.3121 0001402  92.4184 267.7108 13.16594556202938
ONEWEB-0264             
1 48982U 21060R   25255.49141190 -.00000101  00000+0 -29907-3 0  9991
2 48982  87.8975 284.1424 0001838  85.6802 274.4539 13.16592699203056
ONEWEB-0266             
1 48984U 21060T   25255.51279187  .00000054  00000+0  10642-3 0  9995
2 48984  87.8984 284.1150 0001957  98.8832 261.2521 13.16594920203048
ONEWEB-0267             
1 48985U 21060U   25255.52387666  .00000074  00000+0  16039-3 0  9997
2 48985  87.8984 284.1152 0001610  87.5305 272.6011 13.16593920203057
ONEWEB-0268             
1 48986U 21060V   25254.58023732 -.00000062  00000+0 -19488-3 0  9994
2 48986  87.8986 284.3100 0001920  89.7544 270.3807 13.16594812203192
ONEWEB-0269             
1 48987U 21060W   25255.54921092 -.00000009  00000+0 -58368-4 0  9990
2 48987  87.8977 284.1467 0002017  92.0654 268.0708 13.16594201203099
ONEWEB-0270             
1 48988U 21060X   25255.49062462  .00000002  00000+0 -29065-4 0  9996
2 48988  87.8984 284.1297 0001477  96.4201 263.7098 13.16594740203120
ONEWEB-0271             
1 48989U 21060Y   25255.47795882 -.00000006  00000+0 -48663-4 0  9994
2 48989  87.8988 284.1163 0001620  89.4900 270.6417 13.16594712203126
ONEWEB-0272             
1 48990U 21060Z   25254.89213774 -.00000024  00000+0 -96644-4 0  9998
2 48990  87.8978 284.2615 0001747  86.0434 274.0896 13.16595749202999
ONEWEB-0273             
1 48991U 21060AA  25255.52230038  .00000055  00000+0  10906-3 0  9990
2 48991  87.8982 284.1235 0001739  95.4140 264.7189 13.16593907203054
ONEWEB-0274             
1 48992U 21060AB  25255.54762782  .00000016  00000+0  72719-5 0  9998
2 48992  87.8977 284.1499 0001942  80.8689 279.2662 13.16594428203093
ONEWEB-0275             
1 48993U 21060AC  25255.38454449  .00000104  00000+0  23746-3 0  9991
2 48993  87.8982 284.1458 0001835  89.5879 270.5463 13.16593858203003
ONEWEB-0276             
1 48994U 21060AD  25255.49379005 -.00000093  00000+0 -27676-3 0  9993
2 48994  87.8985 284.1211 0001805  97.9263 262.2073 13.16595284203034
ONEWEB-0277             
1 48995U 21060AE  25255.50644817 -.00000058  00000+0 -18418-3 0  9997
2 48995  87.8977 284.1516 0001527  88.0243 272.1063 13.16594396203025
ONEWEB-0278             
1 48996U 21060AF  25254.58498483 -.00000022  00000+0 -92375-4 0  9997
2 48996  87.8987 284.2994 0001975  99.4844 260.6510 13.16595823203034
